NORAD_CAT_ID,OBJECT_NAME,OBJECT_TYPE,EPOCH,MEAN_MOTION,ECCENTRICITY,INCLINATION,RA_OF_ASC_NODE,ARG_OF_PERICENTER,MEAN_ANOMALY,BSTAR,MEAN_MOTION_DOT,MEAN_MOTION_DDOT,TLE_LINE0,TLE_LINE1,TLE_LINE2,SEMIMAJOR_AXIS,PERIOD,APOGEE,PERIGEE,DECAYED
52879.0,STARLINK-4139,PAYLOAD,2023-05-18 20:31:25,15.08841691,9.81e-05,53.2181,299.273,82.7905,277.3199,4.8419e-05,4.83e-06,0.0,0 STARLINK-4139,1 52879U 22062BB  23138.85515842  .00000483  00000-0  48419-4 0  9993,2 52879  53.2181 299.2730 0000981  82.7905 277.3199 15.08841691 51203,6917.875,95.437,540.419,539.062,0.0
52879.0,STARLINK-4139,PAYLOAD,2023-05-19 17:11:26,15.08840562,9.79e-05,53.2164,295.4065,83.9973,276.113,8.2169e-05,1.02e-05,0.0,0 STARLINK-4139,1 52879U 22062BB  23139.71627871  .00001020  00000-0  82169-4 0  9993,2 52879  53.2164 295.4065 0000979  83.9973 276.1130 15.08840562 51330,6917.879,95.438,540.421,539.066,0.0
52879.0,STARLINK-4139,PAYLOAD,2023-05-20 10:40:41,15.08824661,8.97e-05,53.2169,292.1347,77.7409,282.3684,0.00032954,4.959e-05,0.0,0 STARLINK-4139,1 52879U 22062BB  23140.44492403  .00004959  00000-0  32954-3 0  9996,2 52879  53.2169 292.1347 0000897  77.7409 282.3684 15.08824661 51937,6917.927,95.439,540.413,539.172,0.0
52879.0,STARLINK-4139,PAYLOAD,2023-05-20 17:02:12,15.08853282,9.6e-05,53.2154,290.945,75.1784,284.9314,0.00020461,2.971e-05,0.0,0 STARLINK-4139,1 52879U 22062BB  23140.70986962  .00002971  00000-0  20461-3 0  9995,2 52879  53.2154 290.9450 0000960  75.1784 284.9314 15.08853282 51974,6917.84,95.437,540.369,539.041,0.0
52879.0,STARLINK-4139,PAYLOAD,2023-05-21 02:34:32,15.08842382,9.76e-05,53.2167,289.1617,80.4699,279.6404,5.4688e-05,5.83e-06,0.0,0 STARLINK-4139,1 52879U 22062BB  23141.10731875  .00000583  00000-0  54688-4 0  9997,2 52879  53.2167 289.1617 0000976  80.4699 279.6404 15.08842382 52032,6917.873,95.437,540.413,539.063,0.0
52879.0,STARLINK-4139,PAYLOAD,2023-05-21 08:56:04,15.08837866,0.0001041,53.2142,287.9757,95.1294,264.9817,-5.2923e-06,-3.72e-06,0.0,0 STARLINK-4139,1 52879U 22062BB  23141.37227975 -.00000372  00000-0 -52923-5 0  9996,2 52879  53.2142 287.9757 0001041  95.1294 264.9817 15.08837866 51589,6917.887,95.438,540.472,539.032,0.0
52879.0,STARLINK-4139,PAYLOAD,2023-05-21 16:53:01,15.08829161,7.9e-05,53.2162,286.4871,96.4933,263.6149,-1.7509e-06,-3.15e-06,0.0,0 STARLINK-4139,1 52879U 22062BB  23141.70349090 -.00000315  00000-0 -17509-5 0  9994,2 52879  53.2162 286.4871 0000790  96.4933 263.6149 15.08829161 52120,6917.914,95.438,540.325,539.232,0.0
52879.0,STARLINK-4139,PAYLOAD,2023-05-22 02:25:19,15.08835472,0.000103,53.218,284.7028,97.1824,262.9285,9.7568e-06,-1.32e-06,0.0,0 STARLINK-4139,1 52879U 22062BB  23142.10092439 -.00000132  00000-0  97568-5 0  9990,2 52879  53.2180 284.7028 0001030  97.1824 262.9285 15.08835472 52181,6917.894,95.438,540.472,539.047,0.0
52879.0,STARLINK-4139,PAYLOAD,2023-05-22 18:19:10,15.088489,9.59e-05,53.2165,281.7284,95.2626,264.8475,0.00013081,1.795e-05,0.0,0 STARLINK-4139,1 52879U 22062BB  23142.76331863  .00001795  00000-0  13081-3 0  9990,2 52879  53.2165 281.7284 0000959  95.2626 264.8475 15.08848900 52286,6917.853,95.437,540.382,539.055,0.0
52879.0,STARLINK-4139,PAYLOAD,2023-05-23 08:37:39,15.08838124,9.1e-05,53.2161,279.0525,104.7619,255.3474,0.00026253,3.893e-05,0.0,0 STARLINK-4139,1 52879U 22062BB  23143.35948600  .00003893  00000-0  26253-3 0  9995,2 52879  53.2161 279.0525 0000910 104.7619 255.3474 15.08838124 52376,6917.886,95.438,540.381,539.122,0.0
52879.0,STARLINK-4139,PAYLOAD,2023-05-23 16:34:35,15.08839388,9.25e-05,53.2164,277.5642,99.2648,260.8449,0.00021026,3.06e-05,0.0,0 STARLINK-4139,1 52879U 22062BB  23143.69068695  .00003060  00000-0  21026-3 0  9998,2 52879  53.2164 277.5642 0000925  99.2648 260.8449 15.08839388 51935,6917.882,95.438,540.387,539.107,0.0
52879.0,STARLINK-4139,PAYLOAD,2023-05-24 08:28:26,15.08836737,9.86e-05,53.2161,274.5908,84.8053,275.3051,0.00019948,2.888e-05,0.0,0 STARLINK-4139,1 52879U 22062BB  23144.35309003  .00002888  00000-0  19948-3 0  9990,2 52879  53.2161 274.5908 0000986  84.8053 275.3051 15.08836737 52522,6917.89,95.438,540.437,539.073,0.0
52879.0,STARLINK-4139,PAYLOAD,2023-05-24 14:49:59,15.08842361,0.0001017,53.2164,273.4024,77.2517,282.8589,6.7756e-05,7.91e-06,0.0,0 STARLINK-4139,1 52879U 22062BB  23144.61804681  .00000791  00000-0  67756-4 0  9993,2 52879  53.2164 273.4024 0001017  77.2517 282.8589 15.08842361 52078,6917.873,95.437,540.442,539.035,0.0
52879.0,STARLINK-4139,PAYLOAD,2023-05-25 17:51:31,15.08849032,0.0001021,53.2166,268.3459,89.1326,270.9783,0.00012453,1.695e-05,0.0,0 STARLINK-4139,1 52879U 22062BB  23145.74411994  .00001695  00000-0  12453-3 0  9996,2 52879  53.2166 268.3459 0001021  89.1326 270.9783 15.08849032 52739,6917.853,95.437,540.424,539.011,0.0
52879.0,STARLINK-4139,PAYLOAD,2023-05-26 12:56:09,15.08857274,0.0001297,53.2171,264.7736,93.9247,266.1893,-0.00022512,-3.871e-05,0.0,0 STARLINK-4139,1 52879U 22062BB  23146.53899984 -.00003871  00000-0 -22512-3 0  9990,2 52879  53.2171 264.7736 0001297  93.9247 266.1893 15.08857274 52368,6917.828,95.436,540.59,538.795,0.0
52879.0,STARLINK-4139,PAYLOAD,2023-05-26 14:31:35,15.08747596,0.0001494,53.217,264.4767,99.8805,260.2356,0.0014086,0.00022144,0.0,0 STARLINK-4139,1 52879U 22062BB  23146.60527479  .00022144  00000-0  14086-2 0  9993,2 52879  53.2170 264.4767 0001494  99.8805 260.2356 15.08747596 52861,6918.163,95.443,541.061,538.994,0.0
52879.0,STARLINK-4139,PAYLOAD,2023-05-27 11:11:34,15.08838327,0.0001081,53.2177,260.61,109.2566,250.8543,2.4905e-06,-2.48e-06,0.0,0 STARLINK-4139,1 52879U 22062BB  23147.46636771 -.00000248  00000-0  24905-5 0  9990,2 52879  53.2177 260.6100 0001081 109.2566 250.8543 15.08838327 52999,6917.886,95.438,540.498,539.003,0.0
52879.0,STARLINK-4139,PAYLOAD,2023-05-27 14:22:20,15.08839043,8.69e-05,53.2177,260.02,89.3742,270.735,4.3117e-05,3.99e-06,0.0,0 STARLINK-4139,1 52879U 22062BB  23147.59884689  .00000399  00000-0  43117-4 0  9998,2 52879  53.2177 260.0200 0000869  89.3742 270.7350 15.08839043 52523,6917.883,95.438,540.349,539.147,0.0
52879.0,STARLINK-4139,PAYLOAD,2023-05-28 06:16:11,15.08836815,8.9e-05,53.2174,257.0477,97.4079,262.7014,7.1344e-05,8.48e-06,0.0,0 STARLINK-4139,1 52879U 22062BB  23148.26124848  .00000848  00000-0  71344-4 0  9999,2 52879  53.2174 257.0477 0000890  97.4079 262.7014 15.08836815 52622,6917.89,95.438,540.371,539.139,0.0
52879.0,STARLINK-4139,PAYLOAD,2023-05-28 12:37:44,15.08841998,8.04e-05,53.2163,255.8578,94.5181,265.5903,5.7334e-05,6.25e-06,0.0,0 STARLINK-4139,1 52879U 22062BB  23148.52620621  .00000625  00000-0  57334-4 0  9994,2 52879  53.2163 255.8578 0000804  94.5181 265.5903 15.08841998 53150,6917.874,95.437,540.295,539.183,0.0
52879.0,STARLINK-4139,PAYLOAD,2023-05-29 12:28:31,15.08842918,7.71e-05,53.2161,251.3975,104.1076,256.0002,3.4388e-05,2.6e-06,0.0,0 STARLINK-4139,1 52879U 22062BB  23149.51980623  .00000260  00000-0  34388-4 0  9994,2 52879  53.2161 251.3975 0000771 104.1076 256.0002 15.08842918 52814,6917.871,95.437,540.27,539.203,0.0
52879.0,STARLINK-4139,PAYLOAD,2023-05-29 23:36:13,15.08839956,7.61e-05,53.2163,249.3164,81.8489,278.259,0.00010299,1.352e-05,0.0,0 STARLINK-4139,1 52879U 22062BB  23149.98348625  .00001352  00000-0  10299-3 0  9992,2 52879  53.2163 249.3164 0000761  81.8489 278.2590 15.08839956 53379,6917.881,95.438,540.272,539.219,0.0
52879.0,STARLINK-4139,PAYLOAD,2023-05-30 09:08:32,15.0883612,0.0001286,53.2161,247.5321,85.1016,275.0123,-0.00011662,-2.143e-05,0.0,0 STARLINK-4139,1 52879U 22062BB  23150.38093631 -.00002143  00000-0 -11662-3 0  9998,2 52879  53.2161 247.5321 0001286  85.1016 275.0123 15.08836120 53432,6917.892,95.438,540.647,538.868,0.0
52879.0,STARLINK-4139,PAYLOAD,2023-05-30 12:19:18,15.08852737,0.0001263,53.216,246.9376,81.0642,279.0493,-0.00029946,-5.052e-05,0.0,0 STARLINK-4139,1 52879U 22062BB  23150.51341196 -.00005052  00000-0 -29946-3 0  9991,2 52879  53.2160 246.9376 0001263  81.0642 279.0493 15.08852737 52962,6917.841,95.437,540.58,538.833,0.0
52879.0,STARLINK-4139,PAYLOAD,2023-05-30 13:54:42,15.08840102,0.0001315,53.2164,246.6398,81.0345,279.0796,-7.2726e-05,-1.445e-05,0.0,0 STARLINK-4139,1 52879U 22062BB  23150.57965304 -.00001445  00000-0 -72726-4 0  9997,2 52879  53.2164 246.6398 0001315  81.0345 279.0796 15.08840102 52975,6917.88,95.438,540.655,538.835,0.0
52879.0,STARLINK-4139,PAYLOAD,2023-05-30 23:27:00,15.08838302,7.98e-05,53.2163,244.8557,85.2212,274.8871,1.3276e-05,-7.6e-07,0.0,0 STARLINK-4139,1 52879U 22062BB  23150.97709104 -.00000076  00000-0  13276-4 0  9998,2 52879  53.2163 244.8557 0000798  85.2212 274.8871 15.08838302 53522,6917.886,95.438,540.303,539.199,0.0
52879.0,STARLINK-4139,PAYLOAD,2023-05-31 13:45:28,15.08843951,7.73e-05,53.2162,242.1788,83.6947,276.4133,5.6283e-05,6.08e-06,0.0,0 STARLINK-4139,1 52879U 22062BB  23151.57324681  .00000608  00000-0  56283-4 0  9993,2 52879  53.2162 242.1788 0000773  83.6947 276.4133 15.08843951 53129,6917.868,95.437,540.268,539.199,0.0
52879.0,STARLINK-4139,PAYLOAD,2023-05-31 23:17:46,15.08851945,6.85e-05,53.216,240.3949,100.1889,259.9181,-3.9853e-05,-9.22e-06,0.0,0 STARLINK-4139,1 52879U 22062BB  23151.97068257 -.00000922  00000-0 -39853-4 0  9996,2 52879  53.2160 240.3949 0000685 100.1889 259.9181 15.08851945 53679,6917.844,95.437,540.183,539.235,0.0
52879.0,STARLINK-4139,PAYLOAD,2023-06-01 10:25:29,15.08840243,7.99e-05,53.2158,238.3136,73.9745,286.1335,0.00014232,1.978e-05,0.0,0 STARLINK-4139,1 52879U 22062BB  23152.43436654  .00001978  00000-0  14232-3 0  9991,2 52879  53.2158 238.3136 0000799  73.9745 286.1335 15.08840243 53251,6917.88,95.438,540.297,539.192,0.0
52879.0,STARLINK-4139,PAYLOAD,2023-06-02 11:51:39,15.08838592,9.11e-05,53.2155,233.5562,75.6082,284.5011,-2.9009e-05,-7.49e-06,0.0,0 STARLINK-4139,1 52879U 22062BB  23153.49421268 -.00000749  00000-0 -29009-4 0  9999,2 52879  53.2155 233.5562 0000911  75.6082 284.5011 15.08838592 53906,6917.885,95.438,540.38,539.119,0.0
